#aV2016  3 15  0  0  0.00000000     288 DD+AD WGS84 FIT  NGA
## 1888 172800.00000000   300.00000000 57462 0.0000000000000
+   31     1  2  3  5  6  7  8  9 10 11 12 13 14 15 16 17 18
+         19 20 21 22 23 24 25 26 27 28 29 30 31 32  0  0  0
+          0  0  0  0  0  0  0  0  0  0  0  0  0  0  0  0  0
+          0  0  0  0  0  0  0  0  0  0  0  0  0  0  0  0  0
+          0  0  0  0  0  0  0  0  0  0  0  0  0  0  0  0  0
++         2  2  2  2  2  2  2  2  2  2  2  2  2  2  2  2  2
++         2  2  2  2  2  2  2  2  2  2  2  2  2  2  0  0  0
++         0  0  0  0  0  0  0  0  0  0  0  0  0  0  0  0  0
++         0  0  0  0  0  0  0  0  0  0  0  0  0  0  0  0  0
++         0  0  0  0  0  0  0  0  0  0  0  0  0  0  0  0  0
%c cc cc ccc ccc cccc cccc cccc cccc ccccc ccccc ccccc ccccc
%c cc cc ccc ccc cccc cccc cccc cccc ccccc ccccc ccccc ccccc
%f  0.0000000  0.000000000  0.00000000000  0.000000000000000
%f  0.0000000  0.000000000  0.00000000000  0.000000000000000
%i    0    0    0    0      0      0      0      0         0
%i    0    0    0    0      0      0      0      0         0
/*      NGA, ST. LOUIS,MO.                                  
/*   EPHEMERIS COMPUTED FROM 2 DAYS OF DATA                 
/*   EPOCHA v2.4 SMOOTHER                                   
/*   G1762 IERS2010 SATAF SATAPC                            
*  2016  3 15 10 15  0.00000000
P  1  -5133.757343  17740.892448 -19076.945081     14.419305                    
V  1 -21975.549820  10086.482523  15571.387833      0.010729                    
P  2  21694.272571 -14804.147079   2369.004593    599.106977                    
V  2   4075.152366   1902.377131 -31420.566722     -0.003370                    
P  3   5577.624834  18455.997617 -18261.369368    -36.296989                    
V  3 -20574.798599 -10832.343672 -17240.385679     -0.044331                    
P  5  14604.808053  -8439.765633  20491.640707   -137.472846                    
V  5  21968.305224  14263.184849  -9555.942530      0.033006                    
P  6  23736.998507  -4051.775236 -11191.320023    160.647922                    
V  6 -11378.075155   8856.224214 -27311.507235      0.058263                    
P  7  11814.474018  10604.946603  21480.224434    465.161744                    
V  7 -23788.998580  12531.479046   6552.433361     -0.018266                    
P  8  -6381.542989  24376.049778   8413.919176    -27.555904                    
V  8  -2343.304454 -10664.506883  29340.307610     -0.014282                    
P  9   8709.096314  21471.495965  12950.932421     90.221243                    
V  9  -2762.985002  16441.041000 -25372.739991      0.075464                    
P 10 -24007.372999  -9742.219157  -5973.853540     26.827469                    
V 10  -5077.618047  -6253.595011  30479.429532     -0.082883                    
P 11  -6602.250500  22843.598814 -12333.701687   -636.740942                    
V 11 -12674.504379   8919.762139  24456.776555     -0.015697                    
P 12  -1459.053843 -17208.355280 -20366.615764    372.483392                    
V 12  21318.300424  13908.210748 -13142.935453      0.015383                    
P 13  12353.984176 -18799.131353  14056.748447     -3.636369                    
V 13   -668.260100  18109.002962  24479.372694     -0.028293                    
P 14 -14286.159271  -5907.780849 -21363.946230     -2.635560                    
V 14   3278.496326 -27498.634897   5201.828307     -0.022269                    
P 15   2449.130181 -25879.053621   4327.550612   -301.816015                    
V 15   4160.704490   5605.053223  30648.681958     -0.018034                    
P 16 -15187.253582   5994.258853  20946.926038    -32.073716                    
V 16 -21395.513765 -15865.070438 -10545.611512      0.029284                    
P 17  13775.646984   7605.678887 -21099.693684   -202.071595                    
V 17  -2546.697611  27371.981603   7895.128626     -0.004929                    
P 18 -19987.753195 -16796.583587   6124.151559    493.859737                    
V 18   7880.472112    530.780668  29490.657799      0.041125                    
P 19  15315.123575  -5063.176371 -21397.423293   -525.303471                    
V 19  -2817.222692  26380.774704  -7969.687770     -0.001914                    
P 20  -2134.757324 -17597.326269  19611.301016    399.421043                    
V 20  23319.789703  10133.346873  11591.664580      0.025214                    
P 21 -15553.564274  -8556.266532  20575.306645   -514.935021                    
V 21  20793.003350 -13017.234881  10425.351678     -0.016789                    
P 22 -12885.711430  10497.238622 -20526.401344    381.055579                    
V 22 -22714.477022 -14041.464459   6838.723713     -0.066779                    
P 23   1644.460091  26088.912542   3253.665883   -164.747840                    
V 23  -3713.641617   3881.021650 -31350.695788     -0.018029                    
P 24   8071.098100 -18636.134993 -17068.638287    -13.938811                    
V 24  19847.761264  -8951.921252  19410.664001     -0.005973                    
P 25 -13394.473289 -18831.292947 -13381.958794   -134.523284                    
V 25  15060.044593   7385.198997 -25495.301733     -0.069702                    
P 26 -21911.286638  -1014.454524  15010.754119   -293.278785                    
V 26 -15240.433749 -11591.915968 -22983.978588     -0.146724                    
P 27 -11844.792197  16786.998713  16719.962460     72.198389                    
V 27  -1228.783601 -21349.912087  20691.099680      0.037259                    
P 28  22750.901823  12693.434084  -4650.770108    509.228491                    
V 28   4301.735594   5463.046414  31635.292633      0.027332                    
P 29  -5311.930110 -23742.117770  10725.531789    655.864220                    
V 29   3104.440860 -13346.607503 -28002.984915      0.004406                    
P 30  20321.391235   3814.735556  16709.469840    106.921957                    
V 30 -18535.809170  10513.688888  20045.718766      0.038819                    
P 31 -24590.612093   5514.528960  -8845.856245    278.321092                    
V 31   9185.885250  -6813.947180 -29070.818869     -0.016977                    
P 32 -15046.475621  -3546.886959 -21595.827754      9.934961                    
V 32    947.856596 -27414.639314   3841.299452     -0.004186                    
EOF
